ONEWEB-0229             
1 48779U 21045N   26204.56927554  .00000059  00000+0  12203-3 0  9998
2 48779  87.8978 251.9431 0002013 100.6975 259.4382 13.15548306249197
ONEWEB-0228             
1 48780U 21045P   26204.37450324  .00000093  00000+0  21191-3 0  9999
2 48780  87.8989 251.9764 0002133  98.5419 261.5953 13.15549318249081
ONEWEB-0232             
1 48781U 21045Q   26204.57720436  .00000176  00000+0  43395-3 0  9998
2 48781  87.8985 251.9364 0002129  95.5824 264.5549 13.15547649249434
ONEWEB-0231             
1 48782U 21045R   26204.40290098  .00000030  00000+0  46256-4 0  9996
2 48782  87.8978 251.9820 0002274 100.5588 259.5799 13.15547873249103
ONEWEB-0234             
1 48783U 21045S   26204.36473780  .00000120  00000+0  28486-3 0  9997
2 48783  87.8992 251.9726 0002549  79.5485 280.5933 13.15547633249233
ONEWEB-0238             
1 48784U 21045T   26204.13681776  .00000099  00000+0  22939-3 0  9991
2 48784  87.8993 252.0142 0002254  85.9844 274.1544 13.15548974249104
ONEWEB-0240             
1 48785U 21045U   26204.15807442 -.00000133  00000+0 -38868-3 0  9993
2 48785  87.8985 252.0190 0002394  98.2383 261.9019 13.15549730249134
ONEWEB-0246             
1 48786U 21045V   26204.38071502 -.00000028  00000+0 -10804-3 0  9992
2 48786  87.8988 251.9788 0002026  99.2133 260.9227 13.15548350249031
ONEWEB-0210             
1 48787U 21045W   26204.43142149  .00000089  00000+0  20195-3 0  9994
2 48787  87.8986 251.9658 0002104 121.0264 239.1073 13.15548022249080
ONEWEB-0214             
1 48788U 21045X   26204.36407546  .00000095  00000+0  21707-3 0  9999
2 48788  87.8988 251.9762 0001762 103.7226 256.4100 13.15546668249046
ONEWEB-0221             
1 48789U 21045Y   26204.21909641  .00000041  00000+0  73646-4 0  9998
2 48789  87.8986 252.0131 0002137 100.0908 260.0463 13.15547810249112
ONEWEB-0213             
1 48790U 21045Z   26204.20800057  .00000070  00000+0  15282-3 0  9993
2 48790  87.8988 252.0189 0002155 104.9982 255.1387 13.15548711249171
ONEWEB-0212             
1 48791U 21045AA  26204.56530889  .00000050  00000+0  99937-4 0  9994
2 48791  87.8981 251.9416 0002053  95.9312 264.2052 13.15547260249212
ONEWEB-0227             
1 48792U 21045AB  26204.56450081 -.00000330  00000+0 -90932-3 0  9998
2 48792  87.8988 251.9421 0002100  97.9418 262.1951 13.15557958249162
ONEWEB-0226             
1 48793U 21045AC  26204.55818277 -.00000001  00000+0 -35496-4 0  9993
2 48793  87.8980 251.9478 0002078 103.9108 256.2253 13.15547728249135
ONEWEB-0224             
1 48794U 21045AD  26204.36962420  .00000021  00000+0  21539-4 0  9996
2 48794  87.8980 252.0175 0002901  90.1222 270.0241 13.15548845249032
